{"type": "FeatureCollection", "features": [{"type": "Feature", "properties": {"norad_id": 22490, "name": "SCD 1", "group": "resource", "lat": 1.2455077246256323, "lon": -138.76987606362218, "alt_km": 723.82241618843, "timestamp": "2025-12-22T11:33:20.085735+00:00", "meta": {"OBJECT_NAME": "SCD 1", "OBJECT_ID": "1993-009B", "EPOCH": "2025-12-21T17:33:16.574976", "MEAN_MOTION": 14.46004662, "ECCENTRICITY": 0.0042147, "INCLINATION": 24.9681, "RA_OF_ASC_NODE": 223.1799, "ARG_OF_PERICENTER": 60.1108, "MEAN_ANOMALY": 350.9705, "EPHEMERIS_TYPE": 0, "CLASSIFICATION_TYPE": "U", "NORAD_CAT_ID": 22490, "ELEMENT_SET_NO": 999, "REV_AT_EPOCH": 73540, "BSTAR": 6.8233e-05, "MEAN_MOTION_DOT": 4.34e-06, "MEAN_MOTION_DDOT": 0}, "tle": {"line1": "1 22490U 93009B   25355.73144184  .00000434  00000+0  68233-4 0  9996", "line2": "2 22490  24.9681 223.1799 0042147  60.1108 350.9705 14.46004662735407"}}, "geometry": {"type": "Point", "coordinates": [-138.76987606362218, 1.2455077246256323]}}, {"type": "Feature", "properties": {"norad_id": 25397, "name": "TECHSAT 1B (GO-32)", "group": "resource", "lat": 53.38497027248936, "lon": -32.38624749968353, "alt_km": 804.2763290599769, "timestamp": "2025-12-22T11:33:20.085763+00:00", "meta": {"OBJECT_NAME": "TECHSAT 1B (GO-32)", "OBJECT_ID": "1998-043D", "EPOCH": "2025-12-21T20:07:42.087648", "MEAN_MOTION": 14.24379411, "ECCENTRICITY": 0.0001773, "INCLINATION": 98.993, "RA_OF_ASC_NODE": 339.2611, "ARG_OF_PERICENTER": 42.713, "MEAN_ANOMALY": 317.4186, "EPHEMERIS_TYPE": 0, "CLASSIFICATION_TYPE": "U", "NORAD_CAT_ID": 25397, "ELEMENT_SET_NO": 999, "REV_AT_EPOCH": 42608, "BSTAR": 4.2995e-05, "MEAN_MOTION_DOT": 5.3e-07, "MEAN_MOTION_DDOT": 0}, "tle": {"line1": "1 25397U 98043D   25355.83868157  .00000053  00000+0  42995-4 0  9996", "line2": "2 25397  98.9930 339.2611 0001773  42.7130 317.4186 14.24379411426082"}}, "geometry": {"type": "Point", "coordinates": [-32.38624749968353, 53.38497027248936]}}, {"type": "Feature", "properties": {"norad_id": 25504, "name": "SCD 2", "group": "resource", "lat": 6.259432968587517, "lon": 95.44658862006285, "alt_km": 728.7068361390002, "timestamp": "2025-12-22T11:33:20.085778+00:00", "meta": {"OBJECT_NAME": "SCD 2", "OBJECT_ID": "1998-060A", "EPOCH": "2025-12-21T14:03:05.507424", "MEAN_MOTION": 14.45427795, "ECCENTRICITY": 0.0017009, "INCLINATION": 24.9948, "RA_OF_ASC_NODE": 87.3516, "ARG_OF_PERICENTER": 47.008, "MEAN_ANOMALY": 336.2832, "EPHEMERIS_TYPE": 0, "CLASSIFICATION_TYPE": "U", "NORAD_CAT_ID": 25504, "ELEMENT_SET_NO": 999, "REV_AT_EPOCH": 43460, "BSTAR": 5.578e-05, "MEAN_MOTION_DOT": 3.81e-06, "MEAN_MOTION_DDOT": 0}, "tle": {"line1": "1 25504U 98060A   25355.58548041  .00000381  00000+0  55780-4 0  9994", "line2": "2 25504  24.9948  87.3516 0017009  47.0080 336.2832 14.45427795434602"}}, "geometry": {"type": "Point", "coordinates": [95.44658862006285, 6.259432968587517]}}, {"type": "Feature", "properties": {"norad_id": 25757, "name": "DLR-TUBSAT", "group": "resource", "lat": 7.338280401922, "lon": 162.4200442246233, "alt_km": 709.9624044919592, "timestamp": "2025-12-22T11:33:20.085791+00:00", "meta": {"OBJECT_NAME": "DLR-TUBSAT", "OBJECT_ID": "1999-029B", "EPOCH": "2025-12-17T13:22:10.787520", "MEAN_MOTION": 14.52359578, "ECCENTRICITY": 0.00141996, "INCLINATION": 98.6566, "RA_OF_ASC_NODE": 336.2196, "ARG_OF_PERICENTER": 177.8976, "MEAN_ANOMALY": 182.2281, "EPHEMERIS_TYPE": 0, "CLASSIFICATION_TYPE": "U", "NORAD_CAT_ID": 25757, "ELEMENT_SET_NO": 999, "REV_AT_EPOCH": 40688, "BSTAR": 3.7650132e-05, "MEAN_MOTION_DOT": 1.05e-06, "MEAN_MOTION_DDOT": 0}, "tle": {"line1": "1 25757U 99029B   25351.55706930  .00000105  00000+0  37650-4 0  9996", "line2": "2 25757  98.6566 336.2196 0014199 177.8976 182.2281 14.52359578406886"}}, "geometry": {"type": "Point", "coordinates": [162.4200442246233, 7.338280401922]}}, {"type": "Feature", "properties": {"norad_id": 25994, "name": "TERRA", "group": "resource", "lat": 5.361541618863687, "lon": -131.438483708534, "alt_km": 692.9233529762769, "timestamp": "2025-12-22T11:33:20.085803+00:00", "meta": {"OBJECT_NAME": "TERRA", "OBJECT_ID": "1999-068A", "EPOCH": "2025-12-22T01:10:17.382720", "MEAN_MOTION": 14.60911955, "ECCENTRICITY": 0.0003496, "INCLINATION": 97.9735, "RA_OF_ASC_NODE": 47.3911, "ARG_OF_PERICENTER": 75.8625, "MEAN_ANOMALY": 344.3896, "EPHEMERIS_TYPE": 0, "CLASSIFICATION_TYPE": "U", "NORAD_CAT_ID": 25994, "ELEMENT_SET_NO": 999, "REV_AT_EPOCH": 38374, "BSTAR": 0.0001032, "MEAN_MOTION_DOT": 4.61e-06, "MEAN_MOTION_DDOT": 0}, "tle": {"line1": "1 25994U 99068A   25356.04881230  .00000461  00000+0  10320-3 0  9997", "line2": "2 25994  97.9735  47.3911 0003496  75.8625 344.3896 14.60911955383744"}}, "geometry": {"type": "Point", "coordinates": [-131.438483708534, 5.361541618863687]}}, {"type": "Feature", "properties": {"norad_id": 27004, "name": "MAROC-TUBSAT", "group": "resource", "lat": -48.66402335651364, "lon": -26.224475584595854, "alt_km": 991.2875823422482, "timestamp": "2025-12-22T11:33:20.085815+00:00", "meta": {"OBJECT_NAME": "MAROC-TUBSAT", "OBJECT_ID": "2001-056D", "EPOCH": "2025-12-22T02:13:31.700064", "MEAN_MOTION": 13.70253379, "ECCENTRICITY": 0.0019207, "INCLINATION": 99.7916, "RA_OF_ASC_NODE": 164.7016, "ARG_OF_PERICENTER": 235.2941, "MEAN_ANOMALY": 237.5857, "EPHEMERIS_TYPE": 0, "CLASSIFICATION_TYPE": "U", "NORAD_CAT_ID": 27004, "ELEMENT_SET_NO": 999, "REV_AT_EPOCH": 20193, "BSTAR": 2.4568e-05, "MEAN_MOTION_DOT": -2.5e-07, "MEAN_MOTION_DDOT": 0}, "tle": {"line1": "1 27004U 01056D   25356.09272801 -.00000025  00000+0  24568-4 0  9991", "line2": "2 27004  99.7916 164.7016 0019207 235.2941 237.5857 13.70253379201938"}}, "geometry": {"type": "Point", "coordinates": [-26.224475584595854, -48.66402335651364]}}, {"type": "Feature", "properties": {"norad_id": 27424, "name": "AQUA", "group": "resource", "lat": 78.2404510361818, "lon": -87.73520238195243, "alt_km": 679.0652007662666, "timestamp": "2025-12-22T11:33:20.085826+00:00", "meta": {"OBJECT_NAME": "AQUA", "OBJECT_ID": "2002-022A", "EPOCH": "2025-12-21T22:23:22.229952", "MEAN_MOTION": 14.61820667, "ECCENTRICITY": 0.0001439, "INCLINATION": 98.405, "RA_OF_ASC_NODE": 316.9619, "ARG_OF_PERICENTER": 110.3776, "MEAN_ANOMALY": 326.1362, "EPHEMERIS_TYPE": 0, "CLASSIFICATION_TYPE": "U", "NORAD_CAT_ID": 27424, "ELEMENT_SET_NO": 999, "REV_AT_EPOCH": 25737, "BSTAR": 0.00018434, "MEAN_MOTION_DOT": 8.71e-06, "MEAN_MOTION_DDOT": 0}, "tle": {"line1": "1 27424U 02022A   25355.93289618  .00000871  00000+0  18434-3 0  9999", "line2": "2 27424  98.4050 316.9619 0001439 110.3776 326.1362 14.61820667257372"}}, "geometry": {"type": "Point", "coordinates": [-87.73520238195243, 78.2404510361818]}}, {"type": "Feature", "properties": {"norad_id": 28051, "name": "IRS-P6 (RESOURCESAT-1)", "group": "resource", "lat": 54.90332646429562, "lon": -131.69782446617108, "alt_km": 725.0826840800974, "timestamp": "2025-12-22T11:33:20.085837+00:00", "meta": {"OBJECT_NAME": "IRS-P6 (RESOURCESAT-1)", "OBJECT_ID": "2003-046A", "EPOCH": "2025-12-22T04:42:25.492032", "MEAN_MOTION": 14.36078288, "ECCENTRICITY": 0.0064746, "INCLINATION": 98.2165, "RA_OF_ASC_NODE": 36.1647, "ARG_OF_PERICENTER": 152.4196, "MEAN_ANOMALY": 297.7085, "EPHEMERIS_TYPE": 0, "CLASSIFICATION_TYPE": "U", "NORAD_CAT_ID": 28051, "ELEMENT_SET_NO": 999, "REV_AT_EPOCH": 15512, "BSTAR": 2.5187e-05, "MEAN_MOTION_DOT": 3.4e-07, "MEAN_MOTION_DDOT": 0}, "tle": {"line1": "1 28051U 03046A   25356.19612838  .00000034  00000+0  25187-4 0  9991", "line2": "2 28051  98.2165  36.1647 0064746 152.4196 297.7085 14.36078288155120"}}, "geometry": {"type": "Point", "coordinates": [-131.69782446617108, 54.90332646429562]}}, {"type": "Feature", "properties": {"norad_id": 28220, "name": "SHIYAN-1 (SY-1)", "group": "resource", "lat": -13.522098719263756, "lon": 60.507583669538626, "alt_km": 483.6068035208709, "timestamp": "2025-12-22T11:33:20.085848+00:00", "meta": {"OBJECT_NAME": "SHIYAN-1 (SY-1)", "OBJECT_ID": "2004-012A", "EPOCH": "2025-12-21T21:28:24.521664", "MEAN_MOTION": 15.28363795, "ECCENTRICITY": 0.0005162, "INCLINATION": 97.8924, "RA_OF_ASC_NODE": 57.9743, "ARG_OF_PERICENTER": 287.3834, "MEAN_ANOMALY": 72.684, "EPHEMERIS_TYPE": 0, "CLASSIFICATION_TYPE": "U", "NORAD_CAT_ID": 28220, "ELEMENT_SET_NO": 999, "REV_AT_EPOCH": 18396, "BSTAR": 0.00048309, "MEAN_MOTION_DOT": 0.00013276, "MEAN_MOTION_DDOT": 0}, "tle": {"line1": "1 28220U 04012A   25355.89472826  .00013276  00000+0  48309-3 0  9992", "line2": "2 28220  97.8924  57.9743 0005162 287.3834  72.6840 15.28363795183962"}}, "geometry": {"type": "Point", "coordinates": [60.507583669538626, -13.522098719263756]}}, {"type": "Feature", "properties": {"norad_id": 28376, "name": "AURA", "group": "resource", "lat": -2.954934018266604, "lon": 126.32118367943353, "alt_km": 693.4381708867995, "timestamp": "2025-12-22T11:33:20.085859+00:00", "meta": {"OBJECT_NAME": "AURA", "OBJECT_ID": "2004-026A", "EPOCH": "2025-12-22T04:08:47.213952", "MEAN_MOTION": 14.60967247, "ECCENTRICITY": 0.0001389, "INCLINATION": 98.3199, "RA_OF_ASC_NODE": 306.4438, "ARG_OF_PERICENTER": 92.216, "MEAN_ANOMALY": 267.9199, "EPHEMERIS_TYPE": 0, "CLASSIFICATION_TYPE": "U", "NORAD_CAT_ID": 28376, "ELEMENT_SET_NO": 999, "REV_AT_EPOCH": 14036, "BSTAR": 0.00020437, "MEAN_MOTION_DOT": 9.54e-06, "MEAN_MOTION_DDOT": 0}, "tle": {"line1": "1 28376U 04026A   25356.17276868  .00000954  00000+0  20437-3 0  9990", "line2": "2 28376  98.3199 306.4438 0001389  92.2160 267.9199 14.60967247140369"}}, "geometry": {"type": "Point", "coordinates": [126.32118367943353, -2.954934018266604]}}]}